NORAD_CAT_ID,OBJECT_NAME,OBJECT_TYPE,EPOCH,MEAN_MOTION,ECCENTRICITY,INCLINATION,RA_OF_ASC_NODE,ARG_OF_PERICENTER,MEAN_ANOMALY,BSTAR,MEAN_MOTION_DOT,MEAN_MOTION_DDOT,TLE_LINE0,TLE_LINE1,TLE_LINE2,SEMIMAJOR_AXIS,PERIOD,APOGEE,PERIGEE,DECAYED
51976.0,STARLINK-3663,PAYLOAD,2023-04-04 10:39:57,15.08866165,0.0001266,53.2152,163.638,85.4652,274.6484,0.001234,0.0001942,0.0,0 STARLINK-3663,1 51976U 22025W   23094.44441258  .00019420  00000-0  12340-2 0  9997,2 51976  53.2152 163.6380 0001266  85.4652 274.6484 15.08866165 59498,6917.8,95.436,540.541,538.79,0.0
51976.0,STARLINK-3663,PAYLOAD,2023-04-05 04:09:11,15.08855832,0.0001122,53.2151,160.3699,87.6381,272.474,0.00076783,0.00011958,0.0,0 STARLINK-3663,1 51976U 22025W   23095.17305204  .00011958  00000-0  76783-3 0  9998,2 51976  53.2151 160.3699 0001122  87.6381 272.4740 15.08855832 60715,6917.832,95.437,540.473,538.921,0.0
51976.0,STARLINK-3663,PAYLOAD,2023-04-05 10:30:44,15.08853074,0.0001242,53.2149,159.1781,126.0239,234.0868,0.00059107,9.135e-05,0.0,0 STARLINK-3663,1 51976U 22025W   23095.43801119  .00009135  00000-0  59107-3 0  9998,2 51976  53.2149 159.1781 0001242 126.0239 234.0868 15.08853074 59644,6917.84,95.437,540.565,538.846,0.0
51976.0,STARLINK-3663,PAYLOAD,2023-04-05 21:38:26,15.0884283,0.0001251,53.2145,157.0974,75.5331,284.5799,0.00077555,0.00012077,0.0,0 STARLINK-3663,1 51976U 22025W   23095.90169623  .00012077  00000-0  77555-3 0  9993,2 51976  53.2145 157.0974 0001251  75.5331 284.5799 15.08842830 60825,6917.872,95.437,540.602,538.871,0.0
51976.0,STARLINK-3663,PAYLOAD,2023-04-06 10:21:31,15.08845974,0.000125,53.2144,154.7173,85.9588,274.1547,0.00013405,1.847e-05,0.0,0 STARLINK-3663,1 51976U 22025W   23096.43161400  .00001847  00000-0  13405-3 0  9994,2 51976  53.2144 154.7173 0001250  85.9588 274.1547 15.08845974 59799,6917.862,95.437,540.592,538.862,0.0
51976.0,STARLINK-3663,PAYLOAD,2023-04-06 21:29:13,15.08844179,0.0001292,53.2142,152.6361,88.3101,271.8039,0.00034648,5.231e-05,0.0,0 STARLINK-3663,1 51976U 22025W   23096.89529544  .00005231  00000-0  34648-3 0  9994,2 51976  53.2142 152.6361 0001292  88.3101 271.8039 15.08844179 60975,6917.868,95.437,540.626,538.839,0.0
51976.0,STARLINK-3663,PAYLOAD,2023-04-07 10:12:18,15.08842252,0.0001342,53.2144,150.2567,89.5733,270.5413,0.00019049,2.745e-05,0.0,0 STARLINK-3663,1 51976U 22025W   23097.42521541  .00002745  00000-0  19049-3 0  9998,2 51976  53.2144 150.2567 0001342  89.5733 270.5413 15.08842252 59946,6917.874,95.437,540.667,538.81,0.0
51976.0,STARLINK-3663,PAYLOAD,2023-04-08 10:03:05,15.08846051,0.000135,53.2149,145.7952,102.5611,257.5532,9.3299e-05,1.197e-05,0.0,0 STARLINK-3663,1 51976U 22025W   23098.41880987  .00001197  00000-0  93299-4 0  9990,2 51976  53.2149 145.7952 0001350 102.5611 257.5532 15.08846051 60094,6917.862,95.437,540.661,538.793,0.0
51976.0,STARLINK-3663,PAYLOAD,2023-04-08 19:35:24,15.08841631,0.0001355,53.2146,144.0111,101.3304,258.784,2.9614e-05,1.83e-06,0.0,0 STARLINK-3663,1 51976U 22025W   23098.81625106  .00000183  00000-0  29614-4 0  9998,2 51976  53.2146 144.0111 0001355 101.3304 258.7840 15.08841631 61265,6917.875,95.437,540.678,538.803,0.0
51976.0,STARLINK-3663,PAYLOAD,2023-04-09 08:18:30,15.08805962,0.0001202,53.2165,141.6326,114.3938,245.718,0.00054007,8.31e-05,0.0,0 STARLINK-3663,1 51976U 22025W   23099.34618673  .00008310  00000-0  54007-3 0  9991,2 51976  53.2165 141.6326 0001202 114.3938 245.7180 15.08805962 61344,6917.984,95.44,540.681,539.018,0.0
51976.0,STARLINK-3663,PAYLOAD,2023-04-09 19:26:11,15.08838182,0.0001343,53.2161,139.551,109.1715,250.9422,2.3014e-05,7.8e-07,0.0,0 STARLINK-3663,1 51976U 22025W   23099.80985514  .00000078  00000-0  23014-4 0  9991,2 51976  53.2161 139.5510 0001343 109.1715 250.9422 15.08838182 61417,6917.886,95.438,540.68,538.822,0.0
51976.0,STARLINK-3663,PAYLOAD,2023-04-10 08:09:16,15.08838854,0.0001352,53.2164,137.172,110.3495,249.7642,3.6357e-05,2.91e-06,0.0,0 STARLINK-3663,1 51976U 22025W   23100.33977473  .00000291  00000-0  36357-4 0  9998,2 51976  53.2164 137.1720 0001352 110.3495 249.7642 15.08838854 60387,6917.884,95.438,540.684,538.814,0.0
51976.0,STARLINK-3663,PAYLOAD,2023-04-10 19:16:58,15.08843926,0.0001229,53.2168,135.0912,102.7752,257.3378,3.4608e-05,2.63e-06,0.0,0 STARLINK-3663,1 51976U 22025W   23100.80345136  .00000263  00000-0  34608-4 0  9991,2 51976  53.2168 135.0912 0001229 102.7752 257.3378 15.08843926 60450,6917.868,95.437,540.584,538.883,0.0
51976.0,STARLINK-3663,PAYLOAD,2023-04-11 01:38:30,15.08843118,0.0001482,53.217,133.9018,102.1601,257.9557,3.2437e-05,2.28e-06,0.0,0 STARLINK-3663,1 51976U 22025W   23101.06841324  .00000228  00000-0  32437-4 0  9999,2 51976  53.2170 133.9018 0001482 102.1601 257.9557 15.08843118 61601,6917.871,95.437,540.761,538.711,0.0
51976.0,STARLINK-3663,PAYLOAD,2023-04-11 09:35:26,15.0883932,0.0001217,53.2167,132.4148,100.5379,259.575,7.8808e-05,9.67e-06,0.0,0 STARLINK-3663,1 51976U 22025W   23101.39961419  .00000967  00000-0  78808-4 0  9995,2 51976  53.2167 132.4148 0001217 100.5379 259.5750 15.08839320 60540,6917.882,95.438,540.589,538.906,0.0
51976.0,STARLINK-3663,PAYLOAD,2023-04-12 09:26:14,15.08834538,0.0001229,53.2164,127.9538,91.506,268.6073,-3.6108e-06,-3.45e-06,0.0,0 STARLINK-3663,1 51976U 22025W   23102.39322279 -.00000345  00000-0 -36108-5 0  9991,2 51976  53.2164 127.9538 0001229  91.5060 268.6073 15.08834538 60699,6917.897,95.438,540.612,538.912,0.0
51976.0,STARLINK-3663,PAYLOAD,2023-04-13 07:41:37,15.08843965,0.0001251,53.2159,123.7904,84.4482,275.6653,8.3892e-05,1.048e-05,0.0,0 STARLINK-3663,1 51976U 22025W   23103.32057476  .00001048  00000-0  83892-4 0  9999,2 51976  53.2159 123.7904 0001251  84.4482 275.6653 15.08843965 60830,6917.868,95.437,540.599,538.868,0.0
51976.0,STARLINK-3663,PAYLOAD,2023-04-14 07:32:24,15.08840866,0.0001205,53.2154,119.3288,89.59,270.523,0.00010699,1.415e-05,0.0,0 STARLINK-3663,1 51976U 22025W   23104.31417577  .00001415  00000-0  10699-3 0  9993,2 51976  53.2154 119.3288 0001205  89.5900 270.5230 15.08840866 60989,6917.878,95.437,540.576,538.909,0.0
51976.0,STARLINK-3663,PAYLOAD,2023-04-15 01:01:39,15.08839118,0.0001221,53.215,116.059,78.3068,281.8061,6.6494e-06,-1.82e-06,0.0,0 STARLINK-3663,1 51976U 22025W   23105.04282091 -.00000182  00000-0  66494-5 0  9992,2 51976  53.2150 116.0590 0001221  78.3068 281.8061 15.08839118 62206,6917.883,95.438,540.593,538.903,0.0
51976.0,STARLINK-3663,PAYLOAD,2023-04-15 07:23:12,15.08838746,0.0001298,53.2151,114.8688,80.4583,279.6556,-1.6083e-05,-5.44e-06,0.0,0 STARLINK-3663,1 51976U 22025W   23105.30778212 -.00000544  00000-0 -16083-4 0  9997,2 51976  53.2151 114.8688 0001298  80.4583 279.6556 15.08838746 61132,6917.884,95.438,540.647,538.851,0.0
51976.0,STARLINK-3663,PAYLOAD,2023-04-16 05:38:35,15.08841222,0.000131,53.2153,110.705,87.8409,272.2734,5.4776e-05,5.84e-06,0.0,0 STARLINK-3663,1 51976U 22025W   23106.23513870  .00000584  00000-0  54776-4 0  9990,2 51976  53.2153 110.7050 0001310  87.8409 272.2734 15.08841222 62383,6917.877,95.437,540.648,538.835,0.0
51976.0,STARLINK-3663,PAYLOAD,2023-04-16 07:13:59,15.08842189,0.0001385,53.2158,110.4078,94.0234,266.0916,6.8812e-05,8.07e-06,0.0,0 STARLINK-3663,1 51976U 22025W   23106.30137749  .00000807  00000-0  68812-4 0  9999,2 51976  53.2158 110.4078 0001385  94.0234 266.0916 15.08842189 61287,6917.874,95.437,540.697,538.781,0.0
51976.0,STARLINK-3663,PAYLOAD,2023-04-16 16:46:18,15.08837399,0.0001352,53.2154,108.6227,92.7124,267.4023,5.6191e-05,6.06e-06,0.0,0 STARLINK-3663,1 51976U 22025W   23106.69882127  .00000606  00000-0  56191-4 0  9992,2 51976  53.2154 108.6227 0001352  92.7124 267.4023 15.08837399 61343,6917.888,95.438,540.689,538.818,0.0
51976.0,STARLINK-3663,PAYLOAD,2023-04-17 05:29:23,15.08833872,0.0001448,53.2168,106.245,100.6689,259.4466,5.5668e-05,5.98e-06,0.0,0 STARLINK-3663,1 51976U 22025W   23107.22874557  .00000598  00000-0  55668-4 0  9998,2 51976  53.2168 106.2450 0001448 100.6689 259.4466 15.08833872 62537,6917.899,95.438,540.766,538.762,0.0
51976.0,STARLINK-3663,PAYLOAD,2023-04-17 07:04:46,15.08834408,0.000144,53.2168,105.9477,100.2045,259.9109,5.8441e-05,6.42e-06,0.0,0 STARLINK-3663,1 51976U 22025W   23107.29498542  .00000642  00000-0  58441-4 0  9993,2 51976  53.2168 105.9477 0001440 100.2045 259.9109 15.08834408 61439,6917.897,95.438,540.759,538.766,0.0
51976.0,STARLINK-3663,PAYLOAD,2023-04-17 21:23:15,15.08837132,0.0001374,53.2166,103.2727,100.6367,259.478,2.4417e-05,1.01e-06,0.0,0 STARLINK-3663,1 51976U 22025W   23107.89114638  .00000101  00000-0  24417-4 0  9996,2 51976  53.2166 103.2727 0001374 100.6367 259.4780 15.08837132 61520,6917.889,95.438,540.705,538.804,0.0
51976.0,STARLINK-3663,PAYLOAD,2023-04-18 08:30:56,15.08840188,0.0001322,53.2168,101.1913,96.0224,264.0919,1.5164e-05,-4.7e-07,0.0,0 STARLINK-3663,1 51976U 22025W   23108.35482554 -.00000047  00000-0  15164-4 0  9992,2 51976  53.2168 101.1913 0001322  96.0224 264.0919 15.08840188 61597,6917.88,95.438,540.659,538.83,0.0
51976.0,STARLINK-3663,PAYLOAD,2023-04-19 08:21:44,15.08825199,0.0001343,53.2166,96.7287,91.7646,268.35,0.00030256,4.529e-05,0.0,0 STARLINK-3663,1 51976U 22025W   23109.34842949  .00004529  00000-0  30256-3 0  9996,2 51976  53.2166  96.7287 0001343  91.7646 268.3500 15.08825199 62859,6917.926,95.438,540.72,538.862,0.0
51976.0,STARLINK-3663,PAYLOAD,2023-04-19 16:18:39,15.08838662,0.000138,53.2171,95.2417,87.6739,272.4411,5.0105e-05,5.1e-06,0.0,0 STARLINK-3663,1 51976U 22025W   23109.67962808  .00000510  00000-0  50105-4 0  9991,2 51976  53.2171  95.2417 0001380  87.6739 272.4411 15.08838662 61790,6917.884,95.438,540.704,538.795,0.0
51976.0,STARLINK-3663,PAYLOAD,2023-04-20 05:01:44,15.08838976,0.0001266,53.2163,92.8645,87.5274,272.5864,9.2853e-05,1.19e-05,0.0,0 STARLINK-3663,1 51976U 22025W   23110.20954688  .00001190  00000-0  92853-4 0  9990,2 51976  53.2163  92.8645 0001266  87.5274 272.5864 15.08838976 62986,6917.884,95.438,540.624,538.873,0.0
